$$SOE
2460728.500000000, A.D. 2025-Feb-22 00:00:00.0000, 1.996674428614367E+08, 2.992051386553706E+08, 2.425467674174218E+07,
2460735.500000000, A.D. 2025-Mar-01 00:00:00.0000, 1.898043000177739E+08, 3.044165436047901E+08, 2.532162654826248E+07,
2460742.500000000, A.D. 2025-Mar-08 00:00:00.0000, 1.797430506348213E+08, 3.093103733573640E+08, 2.636213521095154E+07,
2460749.500000000, A.D. 2025-Mar-15 00:00:00.0000, 1.694927528180917E+08, 3.138790370403938E+08, 2.737490358265984E+07,
2460756.500000000, A.D. 2025-Mar-22 00:00:00.0000, 1.590627718235067E+08, 3.181151114142768E+08, 2.835863667001379E+07,
2460763.500000000, A.D. 2025-Mar-29 00:00:00.0000, 1.484627835425167E+08, 3.220113502984668E+08, 2.931204464438474E+07,
2460770.500000000, A.D. 2025-Apr-05 00:00:00.0000, 1.377027794618290E+08, 3.255606956312952E+08, 3.023384386685760E+07,
2460777.500000000, A.D. 2025-Apr-12 00:00:00.0000, 1.267930711176651E+08, 3.287562902871124E+08, 3.112275811655185E+07,
2460784.500000000, A.D. 2025-Apr-19 00:00:00.0000, 1.157442937977254E+08, 3.315914917900873E+08, 3.197751997218537E+07,
2460791.500000000, A.D. 2025-Apr-26 00:00:00.0000, 1.045674096997965E+08, 3.340598867415767E+08, 3.279687231023595E+07,
2460798.500000000, A.D. 2025-May-03 00:00:00.0000, 9.327371059385218E+07, 3.361553059975065E+08, 3.357956991560100E+07,
2460805.500000000, A.D. 2025-May-10 00:00:00.0000, 8.187481994475126E+07, 3.378718406183373E+08, 3.432438120745955E+07,
2460812.500000000, A.D. 2025-May-17 00:00:00.0000, 7.038269445588885E+07, 3.392038585605986E+08, 3.503009007805035E+07,
2460819.500000000, A.D. 2025-May-24 00:00:00.0000, 5.880962512621226E+07, 3.401460220612748E+08, 3.569549782820892E+07,
2460826.500000000, A.D. 2025-May-31 00:00:00.0000, 4.716823815167803E+07, 3.406933060280371E+08, 3.631942519092470E+07,
2460833.500000000, A.D. 2025-Jun-07 00:00:00.0000, 3.547149518060843E+07, 3.408410186390106E+08, 3.690071458215536E+07,
2460840.500000000, A.D. 2025-Jun-14 00:00:00.0000, 2.373269046769229E+07, 3.405848234718756E+08, 3.743823274363123E+07,
2460847.500000000, A.D. 2025-Jun-21 00:00:00.0000, 1.196544604023838E+07, 3.399207598627744E+08, 3.793087340006602E+07,
2460854.500000000, A.D. 2025-Jun-28 00:00:00.0000, 1.837078950429157E+05, 3.388452632388416E+08, 3.837755979128642E+07,
2460861.500000000, A.D. 2025-Jul-05 00:00:00.0000, -1.159825839422807E+07, 3.373551875517346E+08, 3.877724739622964E+07,
2460868.500000000, A.D. 2025-Jul-12 00:00:00.0000, -2.336587395890730E+07, 3.354478289581311E+08, 3.912892689167243E+07,
2460875.500000000, A.D. 2025-Jul-19 00:00:00.0000, -3.510425473150437E+07, 3.331209501134806E+08, 3.943162728014845E+07,
2460882.500000000, A.D. 2025-Jul-26 00:00:00.0000, -4.679822126263776E+07, 3.303728049538794E+08, 3.968441916111217E+07,
2460889.500000000, A.D. 2025-Aug-02 00:00:00.0000, -5.843231031044613E+07, 3.272021639067546E+08, 3.988641813776079E+07,
2460896.500000000, A.D. 2025-Aug-09 00:00:00.0000, -6.999078829622945E+07, 3.236083394210680E+08, 4.003678835135771E+07,
2460903.500000000, A.D. 2025-Aug-16 00:00:00.0000, -8.145766666561772E+07, 3.195912116446069E+08, 4.013474612444915E+07,
2460910.500000000, A.D. 2025-Aug-23 00:00:00.0000, -9.281671897692019E+07, 3.151512541404378E+08, 4.017956367945838E+07,
2460917.500000000, A.D. 2025-Aug-30 00:00:00.0000, -1.040514994993499E+08, 3.102895602176544E+08, 4.017057295129432E+07,
2460924.500000000, A.D. 2025-Sep-06 00:00:00.0000, -1.151453648452821E+08, 3.050078707268340E+08, 4.010716969486848E+07,
2460931.500000000, A.D. 2025-Sep-13 00:00:00.0000, -1.260815003966543E+08, 2.993086006703030E+08, 3.998881782362756E+07,
2460938.500000000, A.D. 2025-Sep-20 00:00:00.0000, -1.368429483281566E+08, 2.931948627825733E+08, 3.981505352540958E+07,
2460945.500000000, A.D. 2025-Sep-27 00:00:00.0000, -1.474126362418927E+08, 2.866704909796756E+08, 3.958548929199511E+07,
2460952.500000000, A.D. 2025-Oct-04 00:00:00.0000, -1.577734084826084E+08, 2.797400639914926E+08, 3.929981806706959E+07,
2460959.500000000, A.D. 2025-Oct-11 00:00:00.0000, -1.679080605433749E+08, 2.724089279808275E+08, 3.895781744191132E+07,
2460966.500000000, A.D. 2025-Oct-18 00:00:00.0000, -1.777993763053029E+08, 2.646832176101019E+08, 3.855935382268167E+07,
2460973.500000000, A.D. 2025-Oct-25 00:00:00.0000, -1.874301679785728E+08, 2.565698753014263E+08, 3.810438652983813E+07,
2460980.500000000, A.D. 2025-Nov-01 00:00:00.0000, -1.967833186799953E+08, 2.480766684352077E+08, 3.759297179704572E+07,
2460987.500000000, A.D. 2025-Nov-08 00:00:00.0000, -2.058418275514756E+08, 2.392122041734897E+08, 3.702526662912260E+07,
2460994.500000000, A.D. 2025-Nov-15 00:00:00.0000, -2.145888571761160E+08, 2.299859415541210E+08, 3.640153246188211E+07,
2461001.500000000, A.D. 2025-Nov-22 00:00:00.0000, -2.230077827604621E+08, 2.204082007720768E+08, 3.572213856338102E+07,
2461008.500000000, A.D. 2025-Nov-29 00:00:00.0000, -2.310822430741571E+08, 2.104901704772171E+08, 3.498756524028890E+07,
2461015.500000000, A.D. 2025-Dec-06 00:00:00.0000, -2.387961952302810E+08, 2.002439126545867E+08, 3.419840700362454E+07,
2461022.500000000, A.D. 2025-Dec-13 00:00:00.0000, -2.461339726360367E+08, 1.896823614342134E+08, 3.335537533449601E+07,
2461029.500000000, A.D. 2025-Dec-20 00:00:00.0000, -2.530803423314432E+08, 1.788193165740452E+08, 3.245930076699822E+07,
2461036.500000000, A.D. 2025-Dec-27 00:00:00.0000, -2.596205624732124E+08, 1.676694339406366E+08, 3.151113455353922E+07,
2461043.500000000, A.D. 2026-Jan-03 00:00:00.0000, -2.657404410767734E+08, 1.562482121453207E+08, 3.051194995381076E+07,
2461050.500000000, A.D. 2026-Jan-10 00:00:00.0000, -2.714263955136008E+08, 1.445719744626962E+08, 2.946294304057734E+07,
2461057.500000000, A.D. 2026-Jan-17 00:00:00.0000, -2.766655121005533E+08, 1.326578457765003E+08, 2.836543295416995E+07,
2461064.500000000, A.D. 2026-Jan-24 00:00:00.0000, -2.814456052431635E+08, 1.205237244533654E+08, 2.722086156455351E+07,
2461071.500000000, A.D. 2026-Jan-31 00:00:00.0000, -2.857552756235657E+08, 1.081882490631596E+08, 2.603079250667226E+07,
2461078.500000000, A.D. 2026-Feb-07 00:00:00.0000, -2.895839668645862E+08, 9.567075986774458E+07, 2.479690955224901E+07,
2461085.500000000, A.D. 2026-Feb-14 00:00:00.0000, -2.929220198946336E+08, 8.299125509936391E+07, 2.352101427279720E+07,
2461092.500000000, A.D. 2026-Feb-21 00:00:00.0000, -2.957607240943905E+08, 7.017034270293391E+07, 2.220502299095785E+07,
2461099.500000000, A.D. 2026-Feb-28 00:00:00.0000, -2.980923657774410E+08, 5.722918885541309E+07, 2.085096320606488E+07,
2461106.500000000, A.D. 2026-Mar-07 00:00:00.0000, -2.999102755418441E+08, 4.418946153669958E+07, 1.946096952262591E+07,
2461113.500000000, A.D. 2026-Mar-14 00:00:00.0000, -3.012088712117791E+08, 3.107326711363925E+07, 1.803727864331020E+07,
2461120.500000000, A.D. 2026-Mar-21 00:00:00.0000, -3.019836940892767E+08, 1.790308319269150E+07, 1.658222351416586E+07,
2461127.500000000, A.D. 2026-Mar-28 00:00:00.0000, -3.022314400559032E+08, 4.701689172983743E+06, 1.509822691315723E+07,
2461134.500000000, A.D. 2026-Apr-04 00:00:00.0000, -3.019499857201940E+08, -8.507906013141371E+06, 1.358779449144212E+07,
2461141.500000000, A.D. 2026-Apr-11 00:00:00.0000, -3.011384089916918E+08, -2.170253882123077E+07, 1.205350725645877E+07,
2461148.500000000, A.D. 2026-Apr-18 00:00:00.0000, -2.997970036359845E+08, -3.485896812398106E+07, 1.049801353420879E+07,
2461155.500000000, A.D. 2026-Apr-25 00:00:00.0000, -2.979272875437697E+08, -4.795395373422454E+07, 8.924020467158793E+06,
2461162.500000000, A.D. 2026-May-02 00:00:00.0000, -2.955320045314618E+08, -6.096433582066911E+07, 7.334285107336091E+06,
2461169.500000000, A.D. 2026-May-09 00:00:00.0000, -2.926151194684122E+08, -7.386711463243407E+07, 5.731605157105166E+06,
2461176.500000000, A.D. 2026-May-16 00:00:00.0000, -2.891818063462730E+08, -8.663952973629272E+07, 4.118809407572765E+06,
2461183.500000000, A.D. 2026-May-23 00:00:00.0000, -2.852384293073684E+08, -9.925913709032889E+07, 2.498748030043334E+06,
2461190.500000000, A.D. 2026-May-30 00:00:00.0000, -2.807925188550712E+08, -1.117038829963182E+08, 8.742830160853416E+05,
2461197.500000000, A.D. 2026-Jun-06 00:00:00.0000, -2.758527437875800E+08, -1.239521775942390E+08, -7.517213927185386E+05,
2461204.500000000, A.D. 2026-Jun-13 00:00:00.0000, -2.704288754917586E+08, -1.359829671230620E+08, -2.376408526204005E+06,
2461211.500000000, A.D. 2026-Jun-20 00:00:00.0000, -2.645317454647292E+08, -1.477758014800869E+08, -3.996938995218776E+06,
2461218.500000000, A.D. 2026-Jun-27 00:00:00.0000, -2.581731981797644E+08, -1.593108969219528E+08, -5.610500085971728E+06,
2461225.500000000, A.D. 2026-Jul-04 00:00:00.0000, -2.513660397619022E+08, -1.705691942421044E+08, -7.214314831027612E+06,
2461232.500000000, A.D. 2026-Jul-11 00:00:00.0000, -2.441239827254840E+08, -1.815324121782047E+08, -8.805650723862045E+06,
2461239.500000000, A.D. 2026-Jul-18 00:00:00.0000, -2.364615872141792E+08, -1.921830957123455E+08, -1.038182802070048E+07,
2461246.500000000, A.D. 2026-Jul-25 00:00:00.0000, -2.283941992728534E+08, -2.025046590286869E+08, -1.194022757577547E+07,
2461253.500000000, A.D. 2026-Aug-01 00:00:00.0000, -2.199378866809514E+08, -2.124814230254177E+08, -1.347829817195334E+07,
2461260.500000000, A.D. 2026-Aug-08 00:00:00.0000, -2.111093727286153E+08, -2.220986473349520E+08, -1.499356333256479E+07,
2461267.500000000, A.D. 2026-Aug-15 00:00:00.0000, -2.019259681154593E+08, -2.313425563776284E+08, -1.648362758666217E+07,
2461274.500000000, A.D. 2026-Aug-22 00:00:00.0000, -1.924055023074235E+08, -2.402003582585303E+08, -1.794618199558437E+07,
2461281.500000000, A.D. 2026-Aug-29 00:00:00.0000, -1.825662571844295E+08, -2.486602579693265E+08, -1.937900882741019E+07,
2461288.500000000, A.D. 2026-Sep-05 00:00:00.0000, -1.724269013579390E+08, -2.567114679134923E+08, -2.077998580156450E+07,
2461295.500000000, A.D. 2026-Sep-12 00:00:00.0000, -1.620064231854173E+08, -2.643442134635345E+08, -2.214708992450272E+07,
$$EOE